{
    "links": {
        "self": "http://www.neowsapp.com/rest/v1/neo/3739218?api_key=iIulBulltgU6a56xZRHN4H3l9WmuAYTsLGpBGhQ2"
    },
    "id": "3739218",
    "neo_reference_id": "3739218",
    "name": "(2016 AO8)",
    "designation": "2016 AO8",
    "nasa_jpl_url": "http://ssd.jpl.nasa.gov/sbdb.cgi?sstr=3739218",
    "absolute_magnitude_h": 24.0,
    "estimated_diameter": {
        "kilometers": {
            "estimated_diameter_min": 0.0421264611,
            "estimated_diameter_max": 0.0941976306
        },
        "meters": {
            "estimated_diameter_min": 42.1264610556,
            "estimated_diameter_max": 94.1976305719
        },
        "miles": {
            "estimated_diameter_min": 0.0261761612,
            "estimated_diameter_max": 0.0585316759
        },
        "feet": {
            "estimated_diameter_min": 138.2101784897,
            "estimated_diameter_max": 309.0473542854
        }
    },
    "is_potentially_hazardous_asteroid": false,
    "close_approach_data": [
        {
            "close_approach_date": "2016-01-02",
            "close_approach_date_full": "2016-Jan-02 00:26",
            "epoch_date_close_approach": 1451694360000,
            "relative_velocity": {
                "kilometers_per_second": "8.0310568346",
                "kilometers_per_hour": "28911.8046046811",
                "miles_per_hour": "17964.671033392"
            },
            "miss_distance": {
                "astronomical": "0.1268837232",
                "lunar": "49.3577683248",
                "kilometers": "18981534.728389584",
                "miles": "11794578.7583368992"
            },
            "orbiting_body": "Earth"
        }
    ],
    "orbital_data": {
        "orbit_id": "6",
        "orbit_determination_date": "2017-04-06 08:29:28",
        "first_observation_date": "2016-01-03",
        "last_observation_date": "2016-01-15",
        "data_arc_in_days": 12,
        "observations_used": 15,
        "orbit_uncertainty": "8",
        "minimum_orbit_intersection": ".107296",
        "jupiter_tisserand_invariant": "2.998",
        "epoch_osculation": "2457391.5",
        "eccentricity": ".6128067485563221",
        "semi_major_axis": "2.814032917574911",
        "inclination": "8.600854656106037",
        "ascending_node_longitude": "88.90932173421504",
        "orbital_period": "1724.218048816943",
        "perihelion_distance": "1.089574555025369",
        "perihelion_argument": "7.348140663258305",
        "aphelion_distance": "4.538491280124454",
        "perihelion_time": "2457388.597874189282",
        "mean_anomaly": ".6059357124670726",
        "mean_motion": ".2087902978669147",
        "equinox": "J2000",
        "orbit_class": {
            "orbit_class_type": "AMO",
            "orbit_class_description": "Near-Earth asteroid orbits similar to that of 1221 Amor",
            "orbit_class_range": "1.017 AU < q (perihelion) < 1.3 AU"
        }
    },
    "is_sentry_object": false
}